STARLINK-2057
1 27666C 21012AY  21325.16387763  .00005209  00000-0  34891-3 0  3256
2 27666  53.0550 252.4896 0002294  60.0928  25.5140 15.06404462    17
